ALOS-4 (DAICHI-4)       
1 60182U 24123A   24208.49190411  .00003754  00000+0  50935-3 0  9997
2 60182  97.9213 304.5923 0001569 112.7137 247.4240 14.79464024  3758
